NORAD_CAT_ID,OBJECT_NAME,OBJECT_TYPE,EPOCH,MEAN_MOTION,ECCENTRICITY,INCLINATION,RA_OF_ASC_NODE,ARG_OF_PERICENTER,MEAN_ANOMALY,BSTAR,MEAN_MOTION_DOT,MEAN_MOTION_DDOT,TLE_LINE0,TLE_LINE1,TLE_LINE2,SEMIMAJOR_AXIS,PERIOD,APOGEE,PERIGEE,DECAYED
52140.0,STARLINK-3682,PAYLOAD,2024-04-16 05:48:19,15.08840061,0.0001468,53.2158,297.6377,98.0424,262.0735,0.00025184,3.722e-05,0.0,0 STARLINK-3682,1 52140U 22029BE  24107.24189795  .00003722  00000-0  25184-3 0  9993,2 52140  53.2158 297.6377 0001468  98.0424 262.0735 15.08840061116405,6917.88,95.438,540.761,538.73,0.0
52140.0,STARLINK-3682,PAYLOAD,2024-04-16 20:06:47,15.08850382,0.0001326,53.2158,294.9635,82.4772,277.6371,0.00021946,3.207e-05,0.0,0 STARLINK-3682,1 52140U 22029BE  24107.83805383  .00003207  00000-0  21946-3 0  9996,2 52140  53.2158 294.9635 0001326  82.4772 277.6371 15.08850382116492,6917.849,95.437,540.631,538.796,0.0
52140.0,STARLINK-3682,PAYLOAD,2024-04-17 12:00:40,15.08830089,0.0001381,53.2153,291.9878,88.2678,271.8472,-5.7105e-05,-1.196e-05,0.0,0 STARLINK-3682,1 52140U 22029BE  24108.50046489 -.00001196  00000-0 -57105-4 0  9999,2 52140  53.2153 291.9878 0001381  88.2678 271.8472 15.08830089116594,6917.911,95.438,540.731,538.82,0.0
52140.0,STARLINK-3682,PAYLOAD,2024-04-17 18:22:12,15.08831277,0.0001584,53.2164,290.799,75.8745,284.2423,-1.122e-05,-4.67e-06,0.0,0 STARLINK-3682,1 52140U 22029BE  24108.76542776 -.00000467  00000-0 -11220-4 0  9995,2 52140  53.2164 290.7990 0001584  75.8745 284.2423 15.08831277116639,6917.907,95.438,540.868,538.676,0.0
52140.0,STARLINK-3682,PAYLOAD,2024-04-18 11:51:27,15.08842858,0.0001425,53.2165,287.528,78.9519,281.1634,0.0002944,4.401e-05,0.0,0 STARLINK-3682,1 52140U 22029BE  24109.49406671  .00004401  00000-0  29440-3 0  9991,2 52140  53.2165 287.5280 0001425  78.9519 281.1634 15.08842858116742,6917.872,95.437,540.722,538.751,0.0
52140.0,STARLINK-3682,PAYLOAD,2024-04-18 18:12:59,15.08857474,0.0001457,53.2159,286.3398,77.0285,283.087,0.00067242,0.00010435,0.0,0 STARLINK-3682,1 52140U 22029BE  24109.75902287  .00010435  00000-0  67242-3 0  9990,2 52140  53.2159 286.3398 0001457  77.0285 283.0870 15.08857474116784,6917.827,95.436,540.7,538.684,0.0
52140.0,STARLINK-3682,PAYLOAD,2024-04-19 11:42:14,15.08852871,0.0001437,53.2165,283.0647,92.1301,267.9856,0.00043537,6.65e-05,0.0,0 STARLINK-3682,1 52140U 22029BE  24110.48766205  .00006650  00000-0  43537-3 0  9995,2 52140  53.2165 283.0647 0001437  92.1301 267.9856 15.08852871116890,6917.841,95.437,540.7,538.712,0.0
52140.0,STARLINK-3682,PAYLOAD,2024-04-19 14:53:00,15.08855999,0.00014,53.2165,282.4702,90.0151,270.1001,0.00046347,7.099e-05,0.0,0 STARLINK-3682,1 52140U 22029BE  24110.62014016  .00007099  00000-0  46347-3 0  9997,2 52140  53.2165 282.4702 0001400  90.0151 270.1001 15.08855999116910,6917.831,95.437,540.665,538.728,0.0
52140.0,STARLINK-3682,PAYLOAD,2024-04-19 18:03:46,15.08861054,0.0001539,53.2165,281.8782,89.0397,271.0771,0.0007272,0.00011311,0.0,0 STARLINK-3682,1 52140U 22029BE  24110.75261913  .00011311  00000-0  72720-3 0  9997,2 52140  53.2165 281.8782 0001539  89.0397 271.0771 15.08861054116939,6917.816,95.436,540.746,538.616,0.0
52140.0,STARLINK-3682,PAYLOAD,2024-04-20 11:33:00,15.08855441,0.0001764,53.2174,278.6096,83.2721,276.8472,0.00040448,6.158e-05,0.0,0 STARLINK-3682,1 52140U 22029BE  24111.48125532  .00006158  00000-0  40448-3 0  9999,2 52140  53.2174 278.6096 0001764  83.2721 276.8472 15.08855441117045,6917.833,95.437,540.918,538.478,0.0
52140.0,STARLINK-3682,PAYLOAD,2024-04-20 14:43:46,15.08854616,0.0001651,53.2174,278.0131,91.0023,269.1158,0.00025401,3.758e-05,0.0,0 STARLINK-3682,1 52140U 22029BE  24111.61373330  .00003758  00000-0  25401-3 0  9990,2 52140  53.2174 278.0131 0001651  91.0023 269.1158 15.08854616117067,6917.836,95.437,540.843,538.559,0.0
52140.0,STARLINK-3682,PAYLOAD,2024-04-20 21:05:18,15.08859914,0.0001641,53.2176,276.821,97.1486,262.9693,0.00019947,2.89e-05,0.0,0 STARLINK-3682,1 52140U 22029BE  24111.87868748  .00002890  00000-0  19947-3 0  9994,2 52140  53.2176 276.8210 0001641  97.1486 262.9693 15.08859914117108,6917.82,95.436,540.82,538.549,0.0
52140.0,STARLINK-3682,PAYLOAD,2024-04-21 14:34:33,15.08847006,0.0001612,53.2178,273.5525,103.1932,256.924,8.7399e-05,1.103e-05,0.0,0 STARLINK-3682,1 52140U 22029BE  24112.60733332  .00001103  00000-0  87399-4 0  9999,2 52140  53.2178 273.5525 0001612 103.1932 256.9240 15.08847006117217,6917.859,95.437,540.839,538.609,0.0
52140.0,STARLINK-3682,PAYLOAD,2024-04-21 17:45:19,15.08851256,0.0001642,53.2176,272.9552,107.2498,252.8674,0.00016187,2.29e-05,0.0,0 STARLINK-3682,1 52140U 22029BE  24112.73981062  .00002290  00000-0  16187-3 0  9992,2 52140  53.2176 272.9552 0001642 107.2498 252.8674 15.08851256117233,6917.846,95.437,540.847,538.575,0.0
52140.0,STARLINK-3682,PAYLOAD,2024-04-22 16:00:44,15.08831369,0.0001527,53.2173,268.791,98.2921,261.8244,-9.825e-05,-1.851e-05,0.0,0 STARLINK-3682,1 52140U 22029BE  24113.66717972 -.00001851  00000-0 -98250-4 0  9998,2 52140  53.2173 268.7910 0001527  98.2921 261.8244 15.08831369117374,6917.907,95.438,540.828,538.715,0.0
52140.0,STARLINK-3682,PAYLOAD,2024-04-23 14:16:10,15.08814453,0.0001513,53.2172,264.6324,103.8928,256.2232,-0.00019907,-3.453e-05,0.0,0 STARLINK-3682,1 52140U 22029BE  24114.59456065 -.00003453  00000-0 -19907-3 0  9995,2 52140  53.2172 264.6324 0001513 103.8928 256.2232 15.08814453117518,6917.958,95.439,540.87,538.777,0.0
52140.0,STARLINK-3682,PAYLOAD,2024-04-23 19:02:19,15.08826023,0.0001414,53.2172,263.7331,86.9379,273.1775,-9.6774e-06,-4.42e-06,0.0,0 STARLINK-3682,1 52140U 22029BE  24114.79327953 -.00000442  00000-0 -96774-5 0  9994,2 52140  53.2172 263.7331 0001414  86.9379 273.1775 15.08826023117546,6917.923,95.438,540.766,538.81,0.0
52140.0,STARLINK-3682,PAYLOAD,2024-04-24 14:06:56,15.08842232,0.0001348,53.2167,260.1659,70.0252,290.0885,0.00034067,5.138e-05,0.0,0 STARLINK-3682,1 52140U 22029BE  24115.58815873  .00005138  00000-0  34067-3 0  9995,2 52140  53.2167 260.1659 0001348  70.0252 290.0885 15.08842232117667,6917.874,95.437,540.671,538.806,0.0
52140.0,STARLINK-3682,PAYLOAD,2024-04-24 15:42:19,15.08846127,0.0001412,53.2167,259.8686,70.4207,289.6937,0.00043626,6.663e-05,0.0,0 STARLINK-3682,1 52140U 22029BE  24115.65439813  .00006663  00000-0  43626-3 0  9994,2 52140  53.2167 259.8686 0001412  70.4207 289.6937 15.08846127117678,6917.862,95.437,540.703,538.75,0.0
52140.0,STARLINK-3682,PAYLOAD,2024-04-24 17:17:42,15.08862863,0.0001355,53.2168,259.575,65.1553,294.958,0.00091175,0.00014261,0.0,0 STARLINK-3682,1 52140U 22029BE  24115.72063592  .00014261  00000-0  91175-3 0  9994,2 52140  53.2168 259.5750 0001355  65.1553 294.9580 15.08862863117688,6917.811,95.436,540.613,538.738,0.0
52140.0,STARLINK-3682,PAYLOAD,2024-04-25 13:57:43,15.08848258,0.0001204,53.2168,255.7059,74.1145,285.998,0.00022595,3.311e-05,0.0,0 STARLINK-3682,1 52140U 22029BE  24116.58175695  .00003311  00000-0  22595-3 0  9991,2 52140  53.2168 255.7059 0001204  74.1145 285.9980 15.08848258117819,6917.855,95.437,540.553,538.887,0.0
52140.0,STARLINK-3682,PAYLOAD,2024-04-25 15:33:06,15.08850118,0.0001259,53.2168,255.4086,74.6387,285.4744,0.00023542,3.462e-05,0.0,0 STARLINK-3682,1 52140U 22029BE  24116.64799584  .00003462  00000-0  23542-3 0  9997,2 52140  53.2168 255.4086 0001259  74.6387 285.4744 15.08850118117821,6917.849,95.437,540.585,538.844,0.0
52140.0,STARLINK-3682,PAYLOAD,2024-04-26 12:13:07,15.08848963,0.0001831,53.2168,251.553,47.9006,312.2142,-2.2809e-05,-6.51e-06,0.0,0 STARLINK-3682,1 52140U 22029BE  24117.50911640 -.00000651  00000-0 -22809-4 0  9997,2 52140  53.2168 251.5530 0001831  47.9006 312.2142 15.08848963117959,6917.853,95.437,540.985,538.451,0.0
52140.0,STARLINK-3682,PAYLOAD,2024-04-26 15:23:53,15.08855477,0.000143,53.2173,250.953,98.8258,261.2896,0.00011549,1.551e-05,0.0,0 STARLINK-3682,1 52140U 22029BE  24117.64158974  .00001551  00000-0  11549-3 0  9991,2 52140  53.2173 250.9530 0001430  98.8258 261.2896 15.08855477117976,6917.833,95.437,540.687,538.709,0.0
52140.0,STARLINK-3682,PAYLOAD,2024-04-27 12:03:54,15.08845087,0.0001451,53.218,247.0894,90.0724,270.0435,0.00017058,2.428e-05,0.0,0 STARLINK-3682,1 52140U 22029BE  24118.50271419  .00002428  00000-0  17058-3 0  9992,2 52140  53.2180 247.0894 0001451  90.0724 270.0435 15.08845087118108,6917.865,95.437,540.734,538.726,0.0
52140.0,STARLINK-3682,PAYLOAD,2024-04-27 13:39:17,15.08845424,0.0001545,53.2177,246.7919,89.5003,270.6166,0.00016584,2.353e-05,0.0,0 STARLINK-3682,1 52140U 22029BE  24118.56895373  .00002353  00000-0  16584-3 0  9999,2 52140  53.2177 246.7919 0001545  89.5003 270.6166 15.08845424118118,6917.864,95.437,540.798,538.66,0.0
52140.0,STARLINK-3682,PAYLOAD,2024-04-27 15:14:40,15.08846796,0.0001542,53.2173,246.493,84.4829,275.6339,0.00020386,2.959e-05,0.0,0 STARLINK-3682,1 52140U 22029BE  24118.63519318  .00002959  00000-0  20386-3 0  9996,2 52140  53.2173 246.4930 0001542  84.4829 275.6339 15.08846796118122,6917.86,95.437,540.791,538.658,0.0
52140.0,STARLINK-3682,PAYLOAD,2024-04-28 11:54:42,15.08831185,0.0001893,53.2178,242.6271,120.0401,240.0779,-0.00014001,-2.515e-05,0.0,0 STARLINK-3682,1 52140U 22029BE  24119.49632108 -.00002515  00000-0 -14001-3 0  9991,2 52140  53.2178 242.6271 0001893 120.0401 240.0779 15.08831185118259,6917.907,95.438,541.082,538.463,0.0
52140.0,STARLINK-3682,PAYLOAD,2024-04-28 15:05:28,15.0883369,0.0001406,53.2164,242.0311,102.1745,257.9405,-4.7881e-05,-1.05e-05,0.0,0 STARLINK-3682,1 52140U 22029BE  24119.62880020 -.00001050  00000-0 -47881-4 0  9990,2 52140  53.2164 242.0311 0001406 102.1745 257.9405 15.08833690118273,6917.9,95.438,540.737,538.792,0.0
52140.0,STARLINK-3682,PAYLOAD,2024-04-29 13:20:52,15.08841699,0.0001551,53.2172,237.8714,114.335,245.7805,0.00026562,3.942e-05,0.0,0 STARLINK-3682,1 52140U 22029BE  24120.55616319  .00003942  00000-0  26562-3 0  9994,2 52140  53.2172 237.8714 0001551 114.3350 245.7805 15.08841699118412,6917.875,95.437,540.813,538.667,0.0
